STARLINK-1325
1 15554C 20025Z   21326.15539723  .00003266  00000-0  21887-3 0  3261
2 15554  53.0530 288.0526 0001843  66.9838  53.5512 15.06391013    19
